[{"OBJECT_NAME":"STARLINK-3744","OBJECT_ID":"2022-041AV","EPOCH":"2026-03-09T09:05:36.277440","MEAN_MOTION":15.0883816,"ECCENTRICITY":0.00013952,"INCLINATION":53.218,"RA_OF_ASC_NODE":90.514,"ARG_OF_PERICENTER":81.2981,"MEAN_ANOMALY":278.8169,"EPHEMERIS_TYPE":0,"CLASSIFICATION_TYPE":"U","NORAD_CAT_ID":52304,"ELEMENT_SET_NO":999,"REV_AT_EPOCH":21459,"BSTAR":3.4823403e-5,"MEAN_MOTION_DOT":2.66e-6,"MEAN_MOTION_DDOT":0},{"OBJECT_NAME":"CZ-6A DEB","OBJECT_ID":"2024-140FT","EPOCH":"2026-03-09T20:21:11.789568","MEAN_MOTION":14.71915772,"ECCENTRICITY":0.01746518,"INCLINATION":89.0601,"RA_OF_ASC_NODE":285.0345,"ARG_OF_PERICENTER":174.2343,"MEAN_ANOMALY":186.0946,"EPHEMERIS_TYPE":0,"CLASSIFICATION_TYPE":"U","NORAD_CAT_ID":60792,"ELEMENT_SET_NO":999,"REV_AT_EPOCH":8444,"BSTAR":0.00029453778,"MEAN_MOTION_DOT":2.37e-5,"MEAN_MOTION_DDOT":0}]
